CCSDS_OMM_VERS = 2.0
CREATION_DATE  = 
ORIGINATOR     = 

OBJECT_NAME    = SL-14 R/B
OBJECT_ID      = 1991-042B
CENTER_NAME    = EARTH
REF_FRAME      = TEME
TIME_SYSTEM    = UTC
MEAN_ELEMENT_THEORY = SGP/SGP4

EPOCH          = 2026-02-25T12:51:08.659296
MEAN_MOTION    = 14.81815059
ECCENTRICITY   = .0015562
INCLINATION    = 82.4902
RA_OF_ASC_NODE = 231.5811
ARG_OF_PERICENTER = 282.2420
MEAN_ANOMALY   = 77.7051

EPHEMERIS_TYPE = 0
CLASSIFICATION_TYPE = U
NORAD_CAT_ID   = 21423
ELEMENT_SET_NO = 999
REV_AT_EPOCH   = 85127
BSTAR          = .52008E-4
MEAN_MOTION_DOT = .434E-5
MEAN_MOTION_DDOT = 0

CCSDS_OMM_VERS = 2.0
CREATION_DATE  = 
ORIGINATOR     = 

OBJECT_NAME    = ERS-1
OBJECT_ID      = 1991-050A
CENTER_NAME    = EARTH
REF_FRAME      = TEME
TIME_SYSTEM    = UTC
MEAN_ELEMENT_THEORY = SGP/SGP4

EPOCH          = 2026-02-25T12:47:19.274208
MEAN_MOTION    = 14.39438296
ECCENTRICITY   = .0031057
INCLINATION    = 98.7890
RA_OF_ASC_NODE = 74.4618
ARG_OF_PERICENTER = 237.2468
MEAN_ANOMALY   = 122.5725

EPHEMERIS_TYPE = 0
CLASSIFICATION_TYPE = U
NORAD_CAT_ID   = 21574
ELEMENT_SET_NO = 999
REV_AT_EPOCH   = 81398
BSTAR          = .11149E-3
MEAN_MOTION_DOT = .302E-5
MEAN_MOTION_DDOT = 0

CCSDS_OMM_VERS = 2.0
CREATION_DATE  = 
ORIGINATOR     = 

OBJECT_NAME    = ARIANE 40 R/B
OBJECT_ID      = 1991-050F
CENTER_NAME    = EARTH
REF_FRAME      = TEME
TIME_SYSTEM    = UTC
MEAN_ELEMENT_THEORY = SGP/SGP4

EPOCH          = 2026-02-25T18:02:02.915232
MEAN_MOTION    = 14.42883529
ECCENTRICITY   = .000436
INCLINATION    = 98.2039
RA_OF_ASC_NODE = 109.4346
ARG_OF_PERICENTER = 106.9669
MEAN_ANOMALY   = 253.2000

EPHEMERIS_TYPE = 0
CLASSIFICATION_TYPE = U
NORAD_CAT_ID   = 21610
ELEMENT_SET_NO = 999
REV_AT_EPOCH   = 81727
BSTAR          = .91994E-4
MEAN_MOTION_DOT = .266E-5
MEAN_MOTION_DDOT = 0

CCSDS_OMM_VERS = 2.0
CREATION_DATE  = 
ORIGINATOR     = 

OBJECT_NAME    = INTERCOSMOS 25
OBJECT_ID      = 1991-086A
CENTER_NAME    = EARTH
REF_FRAME      = TEME
TIME_SYSTEM    = UTC
MEAN_ELEMENT_THEORY = SGP/SGP4

EPOCH          = 2026-02-25T16:29:05.309664
MEAN_MOTION    = 12.11960003
ECCENTRICITY   = .1487101
INCLINATION    = 82.6071
RA_OF_ASC_NODE = 317.2618
ARG_OF_PERICENTER = 142.7895
MEAN_ANOMALY   = 228.6248

EPHEMERIS_TYPE = 0
CLASSIFICATION_TYPE = U
NORAD_CAT_ID   = 21819
ELEMENT_SET_NO = 999
REV_AT_EPOCH   = 49523
BSTAR          = .26794E-3
MEAN_MOTION_DOT = .1398E-4
MEAN_MOTION_DDOT = 0

CCSDS_OMM_VERS = 2.0
CREATION_DATE  = 
ORIGINATOR     = 

OBJECT_NAME    = SL-8 R/B
OBJECT_ID      = 1992-008B
CENTER_NAME    = EARTH
REF_FRAME      = TEME
TIME_SYSTEM    = UTC
MEAN_ELEMENT_THEORY = SGP/SGP4

EPOCH          = 2026-02-25T13:42:53.470944
MEAN_MOTION    = 13.75969936
ECCENTRICITY   = .0034915
INCLINATION    = 82.9234
RA_OF_ASC_NODE = 276.7949
ARG_OF_PERICENTER = 166.5141
MEAN_ANOMALY   = 221.8694

EPHEMERIS_TYPE = 0
CLASSIFICATION_TYPE = U
NORAD_CAT_ID   = 21876
ELEMENT_SET_NO = 999
REV_AT_EPOCH   = 70775
BSTAR          = -.13486E-5
MEAN_MOTION_DOT = .14E-6
MEAN_MOTION_DDOT = 0

CCSDS_OMM_VERS = 2.0
CREATION_DATE  = 
ORIGINATOR     = 

OBJECT_NAME    = SL-8 R/B
OBJECT_ID      = 1992-020B
CENTER_NAME    = EARTH
REF_FRAME      = TEME
TIME_SYSTEM    = UTC
MEAN_ELEMENT_THEORY = SGP/SGP4

EPOCH          = 2026-02-25T09:36:37.541664
MEAN_MOTION    = 13.75547886
ECCENTRICITY   = .00282151
INCLINATION    = 82.9344
RA_OF_ASC_NODE = 162.8830
ARG_OF_PERICENTER = 334.3958
MEAN_ANOMALY   = 92.4151

EPHEMERIS_TYPE = 0
CLASSIFICATION_TYPE = U
NORAD_CAT_ID   = 21938
ELEMENT_SET_NO = 999
REV_AT_EPOCH   = 69944
BSTAR          = .61993394E-4
MEAN_MOTION_DOT = .75E-6
MEAN_MOTION_DDOT = 0

CCSDS_OMM_VERS = 2.0
CREATION_DATE  = 
ORIGINATOR     = 

OBJECT_NAME    = USA 81
OBJECT_ID      = 1992-023A
CENTER_NAME    = EARTH
REF_FRAME      = TEME
TIME_SYSTEM    = UTC
MEAN_ELEMENT_THEORY = SGP/SGP4

EPOCH          = 2026-02-25T07:03:18.842976
MEAN_MOTION    = 14.32363236
ECCENTRICITY   = .0002745
INCLINATION    = 85.0108
RA_OF_ASC_NODE = 138.5903
ARG_OF_PERICENTER = 88.4169
MEAN_ANOMALY   = 271.7338

EPHEMERIS_TYPE = 0
CLASSIFICATION_TYPE = U
NORAD_CAT_ID   = 21949
ELEMENT_SET_NO = 999
REV_AT_EPOCH   = 9301
BSTAR          = .55038E-4
MEAN_MOTION_DOT = .169E-5
MEAN_MOTION_DDOT = 0

CCSDS_OMM_VERS = 2.0
CREATION_DATE  = 
ORIGINATOR     = 

OBJECT_NAME    = COSMOS 2219
OBJECT_ID      = 1992-076A
CENTER_NAME    = EARTH
REF_FRAME      = TEME
TIME_SYSTEM    = UTC
MEAN_ELEMENT_THEORY = SGP/SGP4

EPOCH          = 2026-02-25T10:11:40.045056
MEAN_MOTION    = 14.14084103
ECCENTRICITY   = .00195646
INCLINATION    = 71.0599
RA_OF_ASC_NODE = 43.7066
ARG_OF_PERICENTER = 223.4156
MEAN_ANOMALY   = 136.5426

EPHEMERIS_TYPE = 0
CLASSIFICATION_TYPE = U
NORAD_CAT_ID   = 22219
ELEMENT_SET_NO = 999
REV_AT_EPOCH   = 71664
BSTAR          = .21247383E-3
MEAN_MOTION_DOT = .358E-5
MEAN_MOTION_DDOT = 0

CCSDS_OMM_VERS = 2.0
CREATION_DATE  = 
ORIGINATOR     = 

OBJECT_NAME    = SL-16 R/B
OBJECT_ID      = 1992-076B
CENTER_NAME    = EARTH
REF_FRAME      = TEME
TIME_SYSTEM    = UTC
MEAN_ELEMENT_THEORY = SGP/SGP4

EPOCH          = 2026-02-25T20:32:16.222848
MEAN_MOTION    = 14.16857043
ECCENTRICITY   = .0010863
INCLINATION    = 70.9988
RA_OF_ASC_NODE = 213.3000
ARG_OF_PERICENTER = 118.1319
MEAN_ANOMALY   = 44.5909

EPHEMERIS_TYPE = 0
CLASSIFICATION_TYPE = U
NORAD_CAT_ID   = 22220
ELEMENT_SET_NO = 999
REV_AT_EPOCH   = 72015
BSTAR          = .1705E-3
MEAN_MOTION_DOT = .294E-5
MEAN_MOTION_DDOT = 0

CCSDS_OMM_VERS = 2.0
CREATION_DATE  = 
ORIGINATOR     = 

OBJECT_NAME    = COSMOS 2221
OBJECT_ID      = 1992-080A
CENTER_NAME    = EARTH
REF_FRAME      = TEME
TIME_SYSTEM    = UTC
MEAN_ELEMENT_THEORY = SGP/SGP4

EPOCH          = 2026-02-25T14:22:46.248096
MEAN_MOTION    = 14.96147592
ECCENTRICITY   = .0013043
INCLINATION    = 82.5028
RA_OF_ASC_NODE = 290.6632
ARG_OF_PERICENTER = 230.1120
MEAN_ANOMALY   = 129.8956

EPHEMERIS_TYPE = 0
CLASSIFICATION_TYPE = U
NORAD_CAT_ID   = 22236
ELEMENT_SET_NO = 999
REV_AT_EPOCH   = 77898
BSTAR          = .14387E-3
MEAN_MOTION_DOT = .1647E-4
MEAN_MOTION_DDOT = 0

CCSDS_OMM_VERS = 2.0
CREATION_DATE  = 
ORIGINATOR     = 

OBJECT_NAME    = SL-16 R/B
OBJECT_ID      = 1992-093B
CENTER_NAME    = EARTH
REF_FRAME      = TEME
TIME_SYSTEM    = UTC
MEAN_ELEMENT_THEORY = SGP/SGP4

EPOCH          = 2026-02-25T08:56:01.176576
MEAN_MOTION    = 14.15449125
ECCENTRICITY   = .00059862
INCLINATION    = 71.0228
RA_OF_ASC_NODE = 30.1219
ARG_OF_PERICENTER = 307.0148
MEAN_ANOMALY   = 53.0427

EPHEMERIS_TYPE = 0
CLASSIFICATION_TYPE = U
NORAD_CAT_ID   = 22285
ELEMENT_SET_NO = 999
REV_AT_EPOCH   = 71141
BSTAR          = .87304233E-4
MEAN_MOTION_DOT = .123E-5
MEAN_MOTION_DDOT = 0

CCSDS_OMM_VERS = 2.0
CREATION_DATE  = 
ORIGINATOR     = 

OBJECT_NAME    = COSMOS 2228
OBJECT_ID      = 1992-094A
CENTER_NAME    = EARTH
REF_FRAME      = TEME
TIME_SYSTEM    = UTC
MEAN_ELEMENT_THEORY = SGP/SGP4

EPOCH          = 2026-02-25T18:10:16.541760
MEAN_MOTION    = 14.97122314
ECCENTRICITY   = .0017672
INCLINATION    = 82.5145
RA_OF_ASC_NODE = 248.7378
ARG_OF_PERICENTER = 346.7619
MEAN_ANOMALY   = 13.3137

EPHEMERIS_TYPE = 0
CLASSIFICATION_TYPE = U
NORAD_CAT_ID   = 22286
ELEMENT_SET_NO = 999
REV_AT_EPOCH   = 77427
BSTAR          = .16738E-3
MEAN_MOTION_DOT = .1963E-4
MEAN_MOTION_DDOT = 0

